KUIPER-00027            
1 63740U 25088S   25343.33335648  .00038131  00000+0  53234-2 0  9999
2 63740  51.9000 135.1017 0004503 209.2910 314.0005 14.77293621  3402
KUIPER-00028            
1 63741U 25088T   25343.11724095  .00002459  00000+0  35391-3 0  9993
2 63741  51.8991 134.0332 0003772 229.9135 130.1497 14.79636360 34649
KUIPER-00029            
1 63742U 25088U   25342.73972053  .00003869  00000+0  53604-3 0  9993
2 63742  51.9024 133.4951 0009340 178.1261 181.9738 14.79944416 34141
KUIPER-00030            
1 63743U 25088V   25342.88407199  .00002449  00000+0  34960-3 0  9991
2 63743  51.8991 152.0802 0015995 125.9294 234.3155 14.79977158 34184
KUIPER-00031            
1 63744U 25088W   25342.83107460  .00014450  00000+0  19236-2 0  9998
2 63744  51.9013 138.3856 0005021 162.3375 197.7762 14.79856910 34088
KUIPER-00032            
1 63745U 25088X   25342.66201483  .00022367  00000+0  69078-3 0  9996
2 63745  51.8725 102.9502 0004391 162.0387 198.0754 15.33450967 35564
KUIPER-00033            
1 63746U 25088Y   25342.93377652  .00003410  00000+0  47628-3 0  9994
2 63746  51.8984 167.9187 0003047 211.1619 148.9163 14.79916365 34164
KUIPER-00034            
1 63747U 25088Z   25342.63654287  .00003778  00000+0  52428-3 0  9995
2 63747  51.9010 131.7465 0002751 153.9461 206.1641 14.79940119 34323
